[{"OBJECT_NAME":"BLUEBON","OBJECT_ID":"2025-009CH","EPOCH":"2026-03-09T16:52:33.225312","MEAN_MOTION":15.29047254,"ECCENTRICITY":0.00011933,"INCLINATION":97.4017,"RA_OF_ASC_NODE":152.2033,"ARG_OF_PERICENTER":43.39,"MEAN_ANOMALY":316.7434,"EPHEMERIS_TYPE":0,"CLASSIFICATION_TYPE":"U","NORAD_CAT_ID":62688,"ELEMENT_SET_NO":999,"REV_AT_EPOCH":6376,"BSTAR":0.00037313027,"MEAN_MOTION_DOT":0.00010452,"MEAN_MOTION_DDOT":0},{"OBJECT_NAME":"STARLINK-35597","OBJECT_ID":"2025-263J","EPOCH":"2026-03-09T03:40:25.375872","MEAN_MOTION":15.27605625,"ECCENTRICITY":0.00013106,"INCLINATION":43.0012,"RA_OF_ASC_NODE":354.0031,"ARG_OF_PERICENTER":261.5589,"MEAN_ANOMALY":98.5114,"EPHEMERIS_TYPE":0,"CLASSIFICATION_TYPE":"U","NORAD_CAT_ID":66493,"ELEMENT_SET_NO":999,"REV_AT_EPOCH":1881,"BSTAR":0.0015118781,"MEAN_MOTION_DOT":0.00041609,"MEAN_MOTION_DDOT":0}]
